NORAD_CAT_ID,OBJECT_NAME,OBJECT_TYPE,EPOCH,MEAN_MOTION,ECCENTRICITY,INCLINATION,RA_OF_ASC_NODE,ARG_OF_PERICENTER,MEAN_ANOMALY,BSTAR,MEAN_MOTION_DOT,MEAN_MOTION_DDOT,TLE_LINE0,TLE_LINE1,TLE_LINE2,SEMIMAJOR_AXIS,PERIOD,APOGEE,PERIGEE,DECAYED
55414.0,STARLINK-5620,PAYLOAD,2023-05-05 13:22:07,15.47671342,0.0003611,69.9974,186.7335,272.2769,87.8002,-0.0054562,-0.00273462,0.0,0 STARLINK-5620,1 55414U 23014Z   23125.55702674 -.00273462  00000-0 -54562-2 0  9998,2 55414  69.9974 186.7335 0003611 272.2769  87.8002 15.47671342 15858,6801.677,93.043,425.998,421.086,0.0
55414.0,STARLINK-5620,PAYLOAD,2023-05-05 21:07:55,15.47179802,0.0003246,69.9975,185.8581,282.3868,77.6953,-0.0053333,-0.00263111,0.0,0 STARLINK-5620,1 55414U 23014Z   23125.88050256 -.00263111  00000-0 -53333-2 0  9991,2 55414  69.9975 185.8581 0003246 282.3868  77.6953 15.47179802 15900,6803.118,93.073,427.191,422.774,0.0
55414.0,STARLINK-5620,PAYLOAD,2023-05-05 22:00:00,15.45290331,0.0003104,69.9997,185.7531,268.3587,295.8784,-0.01957,-0.00852748,0.0,0 STARLINK-5620,1 55414U 23014Z   23125.91667824 -.00852748  00000-0 -19570-1 0  9994,2 55414  69.9997 185.7531 0003104 268.3587 295.8784 15.45290331 15908,6808.662,93.186,432.641,428.414,0.0
55414.0,STARLINK-5620,PAYLOAD,2023-05-06 04:54:04,15.46360028,0.0004557,69.9977,184.9794,250.1418,109.9275,-0.0045608,-0.00220004,0.0,0 STARLINK-5620,1 55414U 23014Z   23126.20421440 -.00220004  00000-0 -45608-2 0  9995,2 55414  69.9977 184.9794 0004557 250.1418 109.9275 15.46360028 15950,6805.522,93.122,430.488,424.286,0.0
55414.0,STARLINK-5620,PAYLOAD,2023-05-06 16:00:00,15.43870782,0.0003239,69.999,183.7232,276.2825,137.0809,-0.022412,-0.00936262,0.0,0 STARLINK-5620,1 55414U 23014Z   23126.66667824 -.00936262  00000-0 -22412-1 0  9990,2 55414  69.9990 183.7232 0003239 276.2825 137.0809 15.43870782  1305,6812.835,93.272,436.907,432.493,0.0
55414.0,STARLINK-5620,PAYLOAD,2023-05-07 06:00:00,15.42745291,0.0003306,69.9993,182.1477,270.5581,142.7331,-0.024196,-0.00969961,0.0,0 STARLINK-5620,1 55414U 23014Z   23127.25001157 -.00969961  00000-0 -24196-1 0  9990,2 55414  69.9993 182.1477 0003306 270.5581 142.7331 15.42745291 16116,6816.148,93.34,440.267,435.76,0.0
55414.0,STARLINK-5620,PAYLOAD,2023-05-07 12:00:35,15.43905015,0.0003667,69.9973,181.4764,276.2186,83.8579,-0.0058543,-0.00258365,0.0,0 STARLINK-5620,1 55414U 23014Z   23127.50041334 -.00258365  00000-0 -58543-2 0  9992,2 55414  69.9973 181.4764 0003667 276.2186  83.8579 15.43905015 16155,6812.734,93.27,437.098,432.101,0.0
55414.0,STARLINK-5620,PAYLOAD,2023-05-07 13:34:04,15.43737328,0.0003988,69.9971,181.3013,270.717,89.3555,-0.0062422,-0.00273413,0.0,0 STARLINK-5620,1 55414U 23014Z   23127.56532690 -.00273413  00000-0 -62422-2 0  9990,2 55414  69.9971 181.3013 0003988 270.7170  89.3555 15.43737328 16163,6813.228,93.28,437.81,432.376,0.0
55414.0,STARLINK-5620,PAYLOAD,2023-05-07 21:21:06,15.43198823,0.0002443,69.9973,180.4273,293.5922,66.5003,-0.0061112,-0.00263126,0.0,0 STARLINK-5620,1 55414U 23014Z   23127.88965877 -.00263126  00000-0 -61112-2 0  9997,2 55414  69.9973 180.4273 0002443 293.5922  66.5003 15.43198823 16218,6814.813,93.313,438.342,435.013,0.0
55414.0,STARLINK-5620,PAYLOAD,2023-05-07 22:00:00,15.4137434,0.0003157,69.9989,180.3498,271.3561,241.7938,-0.022103,-0.00855337,0.0,0 STARLINK-5620,1 55414U 23014Z   23127.91667824 -.00855337  00000-0 -22103-1 0  9999,2 55414  69.9989 180.3498 0003157 271.3561 241.7938 15.41374340 16211,6820.189,93.423,444.207,439.901,0.0
55414.0,STARLINK-5620,PAYLOAD,2023-05-08 05:08:21,15.42580355,0.0003195,69.9976,179.5516,242.3479,117.7378,-0.0057901,-0.00244788,0.0,0 STARLINK-5620,1 55414U 23014Z   23128.21413831 -.00244788  00000-0 -57901-2 0  9997,2 55414  69.9976 179.5516 0003195 242.3479 117.7378 15.42580355 16267,6816.634,93.35,440.677,436.321,0.0
55414.0,STARLINK-5620,PAYLOAD,2023-05-08 14:00:01,15.40095483,0.0003199,69.9989,178.5558,274.5443,335.3125,-0.024225,-0.00895106,0.0,0 STARLINK-5620,1 55414U 23014Z   23128.58334491 -.00895106  00000-0 -24225-1 0  9999,2 55414  69.9989 178.5558 0003199 274.5443 335.3125 15.40095483 16313,6823.964,93.501,448.012,443.646,0.0
55414.0,STARLINK-5620,PAYLOAD,2023-05-08 20:43:36,15.41277548,0.0001362,69.9971,177.8075,292.489,67.6147,-0.0056504,-0.00229124,0.0,0 STARLINK-5620,1 55414U 23014Z   23128.86361176 -.00229124  00000-0 -56504-2 0  9997,2 55414  69.9971 177.8075 0001362 292.4890  67.6147 15.41277548 16364,6820.475,93.429,443.269,441.411,0.0
55414.0,STARLINK-5620,PAYLOAD,2023-05-09 12:19:45,15.39965234,0.0003071,69.9961,176.0635,243.9763,116.1102,-0.0072759,-0.00280674,0.0,0 STARLINK-5620,1 55414U 23014Z   23129.51371708 -.00280674  00000-0 -72759-2 0  9999,2 55414  69.9961 176.0635 0003071 243.9763 116.1102 15.39965234 16460,6824.349,93.509,448.31,444.118,0.0
55414.0,STARLINK-5620,PAYLOAD,2023-05-10 14:00:01,15.36185106,0.0003157,69.9988,173.1946,276.9647,244.2554,-0.027646,-0.00898678,0.0,0 STARLINK-5620,1 55414U 23014Z   23130.58334491 -.00898678  00000-0 -27646-1 0  9999,2 55414  69.9988 173.1946 0003157 276.9647 244.2554 15.36185106  1304,6835.54,93.739,459.563,455.247,0.0
55414.0,STARLINK-5620,PAYLOAD,2023-05-10 22:00:00,15.35501414,0.0003187,69.999,172.3043,270.4156,293.3042,-0.026566,-0.00848802,0.0,0 STARLINK-5620,1 55414U 23014Z   23130.91667824 -.00848802  00000-0 -26566-1 0  9999,2 55414  69.9990 172.3043 0003187 270.4156 293.3042 15.35501414  1303,6837.569,93.78,461.613,457.254,0.0
55414.0,STARLINK-5620,PAYLOAD,2023-05-11 06:00:00,15.34900776,0.0003309,69.9992,171.415,270.0954,335.3198,-0.030425,-0.00944896,0.0,0 STARLINK-5620,1 55414U 23014Z   23131.25001157 -.00944896  00000-0 -30425-1 0  9997,2 55414  69.9992 171.4150 0003309 270.0954 335.3198 15.34900776 16726,6839.352,93.817,463.48,458.954,0.0
55414.0,STARLINK-5620,PAYLOAD,2023-05-11 14:00:01,15.34238153,0.0003352,69.9989,170.5263,273.5097,12.8292,-0.030073,-0.0091688,0.0,0 STARLINK-5620,1 55414U 23014Z   23131.58334491 -.00916880  00000-0 -30073-1 0  9994,2 55414  69.9989 170.5263 0003352 273.5097  12.8292 15.34238153  1304,6841.321,93.858,465.48,460.893,0.0
55414.0,STARLINK-5620,PAYLOAD,2023-05-11 22:00:00,15.33540123,0.0003389,69.9992,169.6386,267.2222,59.2739,-0.02801,-0.00841309,0.0,0 STARLINK-5620,1 55414U 23014Z   23131.91667824 -.00841309  00000-0 -28010-1 0  9991,2 55414  69.9992 169.6386 0003389 267.2222  59.2739 15.33540123 16829,6843.397,93.9,467.581,462.943,0.0
55414.0,STARLINK-5620,PAYLOAD,2023-05-12 06:00:00,15.32945748,0.0003503,69.9996,168.7519,269.7516,96.0924,-0.032504,-0.00948348,0.0,0 STARLINK-5620,1 55414U 23014Z   23132.25001157 -.00948348  00000-0 -32504-1 0  9994,2 55414  69.9996 168.7519 0003503 269.7516  96.0924 15.32945748 16884,6845.166,93.937,469.429,464.633,0.0
55414.0,STARLINK-5620,PAYLOAD,2023-05-12 12:00:00,15.32419277,0.0003455,69.9995,168.0872,273.3588,31.4988,-0.030345,-0.00876772,0.0,0 STARLINK-5620,1 55414U 23014Z   23132.50001157 -.00876772  00000-0 -30345-1 0  9994,2 55414  69.9995 168.0872 0003455 273.3588  31.4988 15.32419277  1301,6846.734,93.969,470.964,466.233,0.0
55414.0,STARLINK-5620,PAYLOAD,2023-05-12 22:00:00,15.31586343,0.0003411,69.9995,166.9806,268.6974,173.5302,-0.029847,-0.00842849,0.0,0 STARLINK-5620,1 55414U 23014Z   23132.91667824 -.00842849  00000-0 -29847-1 0  9991,2 55414  69.9995 166.9806 0003411 268.6974 173.5302 15.31586343 16989,6849.216,94.02,473.417,468.745,0.0
55414.0,STARLINK-5620,PAYLOAD,2023-05-13 06:00:00,15.30986317,0.0003437,69.9998,166.0964,270.9488,208.284,-0.034489,-0.00946359,0.0,0 STARLINK-5620,1 55414U 23014Z   23133.25001157 -.00946359  00000-0 -34489-1 0  9999,2 55414  69.9998 166.0964 0003437 270.9488 208.2840 15.30986317 17036,6851.005,94.057,475.225,470.516,0.0
55414.0,STARLINK-5620,PAYLOAD,2023-05-13 14:00:01,15.30317128,0.0003426,69.9994,165.2129,275.9938,239.4682,-0.033629,-0.00907157,0.0,0 STARLINK-5620,1 55414U 23014Z   23133.58334491 -.00907157  00000-0 -33629-1 0  9993,2 55414  69.9994 165.2129 0003426 275.9938 239.4682 15.30317128  1300,6853.002,94.098,477.215,472.52,0.0
55414.0,STARLINK-5620,PAYLOAD,2023-05-13 22:00:00,15.29635318,0.0003351,69.9994,164.3303,268.9686,281.9512,-0.032121,-0.00852797,0.0,0 STARLINK-5620,1 55414U 23014Z   23133.91667824 -.00852797  00000-0 -32121-1 0  9994,2 55414  69.9994 164.3303 0003351 268.9686 281.9512 15.29635318 17137,6855.039,94.14,479.201,474.607,0.0
55414.0,STARLINK-5620,PAYLOAD,2023-05-14 06:00:00,15.29023562,0.0003414,69.9997,163.4486,269.8652,315.7161,-0.036239,-0.00948395,0.0,0 STARLINK-5620,1 55414U 23014Z   23134.25001157 -.00948395  00000-0 -36239-1 0  9997,2 55414  69.9997 163.4486 0003414 269.8652 315.7161 15.29023562 17188,6856.867,94.178,481.073,476.391,0.0
55414.0,STARLINK-5620,PAYLOAD,2023-05-14 14:00:01,15.28367045,0.0003473,69.9993,162.5679,273.0524,346.408,-0.036156,-0.00917397,0.0,0 STARLINK-5620,1 55414U 23014Z   23134.58334491 -.00917397  00000-0 -36156-1 0  9999,2 55414  69.9993 162.5679 0003473 273.0524 346.4080 15.28367045  1302,6858.83,94.218,483.077,478.313,0.0
55414.0,STARLINK-5620,PAYLOAD,2023-05-14 22:00:00,15.2767985,0.0003465,69.9993,161.688,266.6143,25.9584,-0.03423,-0.00855549,0.0,0 STARLINK-5620,1 55414U 23014Z   23134.91667824 -.00855549  00000-0 -34230-1 0  9996,2 55414  69.9993 161.6880 0003465 266.6143  25.9584 15.27679850 17283,6860.887,94.261,485.129,480.375,0.0
55414.0,STARLINK-5620,PAYLOAD,2023-05-15 14:00:01,15.26420322,0.0003545,69.999,159.9307,273.9001,82.5155,-0.039005,-0.00943144,0.0,0 STARLINK-5620,1 55414U 23014Z   23135.58334491 -.00943144  00000-0 -39005-1 0  9995,2 55414  69.9990 159.9307 0003545 273.9001  82.5155 15.26420322 17399,6864.661,94.338,488.959,484.092,0.0
55414.0,STARLINK-5620,PAYLOAD,2023-05-15 22:00:00,15.25721139,0.0003463,69.9989,159.0534,267.7286,119.4577,-0.036198,-0.00852692,0.0,0 STARLINK-5620,1 55414U 23014Z   23135.91667824 -.00852692  00000-0 -36198-1 0  9998,2 55414  69.9989 159.0534 0003463 267.7286 119.4577 15.25721139  1306,6866.758,94.382,491.001,486.245,0.0
